STARLINK-32139          
1 61510U 24183B   26068.50662380 -.00000846  00000+0 -16468-4 0  9991
2 61510  53.1581 143.3584 0000956 116.4481 243.6618 15.30188631 79621
2025-313BE              
1 67482U 25313BE  26068.69721505  .00077178  00000+0  26504-2 0  9996
2 67482  97.3989 145.3568 0007208 335.3714  24.7181 15.29801687  7972
