[{"OBJECT_NAME":"STARLINK-32139","OBJECT_ID":"2024-183B","EPOCH":"2026-03-09T12:09:32.296320","MEAN_MOTION":15.30188631,"ECCENTRICITY":9.564e-5,"INCLINATION":53.1581,"RA_OF_ASC_NODE":143.3584,"ARG_OF_PERICENTER":116.4481,"MEAN_ANOMALY":243.6618,"EPHEMERIS_TYPE":0,"CLASSIFICATION_TYPE":"U","NORAD_CAT_ID":61510,"ELEMENT_SET_NO":999,"REV_AT_EPOCH":7962,"BSTAR":-1.6468453e-5,"MEAN_MOTION_DOT":-8.46e-6,"MEAN_MOTION_DDOT":0},{"OBJECT_NAME":"OBJECT BE","OBJECT_ID":"2025-313BE","EPOCH":"2026-03-09T16:43:59.380320","MEAN_MOTION":15.29801687,"ECCENTRICITY":0.00072083,"INCLINATION":97.3989,"RA_OF_ASC_NODE":145.3568,"ARG_OF_PERICENTER":335.3714,"MEAN_ANOMALY":24.7181,"EPHEMERIS_TYPE":0,"CLASSIFICATION_TYPE":"U","NORAD_CAT_ID":67482,"ELEMENT_SET_NO":999,"REV_AT_EPOCH":797,"BSTAR":0.0026504328,"MEAN_MOTION_DOT":0.00077178,"MEAN_MOTION_DDOT":0}]
